[{"OBJECT_NAME":"STARLINK-5533","OBJECT_ID":"2023-058AQ","EPOCH":"2025-11-28T21:47:24.388224","MEAN_MOTION":15.01256979,"ECCENTRICITY":0.0001613,"INCLINATION":97.6026,"RA_OF_ASC_NODE":331.593,"ARG_OF_PERICENTER":196.3322,"MEAN_ANOMALY":163.7851,"EPHEMERIS_TYPE":0,"CLASSIFICATION_TYPE":"U","NORAD_CAT_ID":56355,"ELEMENT_SET_NO":999,"REV_AT_EPOCH":14301,"BSTAR":-0.00027336,"MEAN_MOTION_DOT":-3.567e-5,"MEAN_MOTION_DDOT":0},{"OBJECT_NAME":"STARLINK-5535","OBJECT_ID":"2023-058AR","EPOCH":"2025-11-28T23:46:27.039936","MEAN_MOTION":15.05647529,"ECCENTRICITY":0.0001794,"INCLINATION":97.6027,"RA_OF_ASC_NODE":331.9474,"ARG_OF_PERICENTER":88.8699,"MEAN_ANOMALY":271.2733,"EPHEMERIS_TYPE":0,"CLASSIFICATION_TYPE":"U","NORAD_CAT_ID":56356,"ELEMENT_SET_NO":999,"REV_AT_EPOCH":14304,"BSTAR":4.9446e-6,"MEAN_MOTION_DOT":1.1e-7,"MEAN_MOTION_DDOT":0},{"OBJECT_NAME":"STARLINK-5538","OBJECT_ID":"2023-058AS","EPOCH":"2025-11-28T21:22:54.628320","MEAN_MOTION":15.05648258,"ECCENTRICITY":0.0001616,"INCLINATION":97.6025,"RA_OF_ASC_NODE":331.9261,"ARG_OF_PERICENTER":89.8694,"MEAN_ANOMALY":270.2718,"EPHEMERIS_TYPE":0,"CLASSIFICATION_TYPE":"U","NORAD_CAT_ID":56357,"ELEMENT_SET_NO":999,"REV_AT_EPOCH":14303,"BSTAR":3.5863e-5,"MEAN_MOTION_DOT":4.57e-6,"MEAN_MOTION_DDOT":0},{"OBJECT_NAME":"STARLINK-5482","OBJECT_ID":"2023-058AT","EPOCH":"2025-11-28T23:28:43.900032","MEAN_MOTION":15.01261916,"ECCENTRICITY":0.0001371,"INCLINATION":97.6021,"RA_OF_ASC_NODE":331.653,"ARG_OF_PERICENTER":176.7399,"MEAN_ANOMALY":183.3835,"EPHEMERIS_TYPE":0,"CLASSIFICATION_TYPE":"U","NORAD_CAT_ID":56358,"ELEMENT_SET_NO":999,"REV_AT_EPOCH":14302,"BSTAR":1.9486e-5,"MEAN_MOTION_DOT":1.92e-6,"MEAN_MOTION_DDOT":0},{"OBJECT_NAME":"STARLINK-5551","OBJECT_ID":"2023-058AU","EPOCH":"2025-11-29T00:57:04.776768","MEAN_MOTION":15.0125629,"ECCENTRICITY":0.0001152,"INCLINATION":97.6027,"RA_OF_ASC_NODE":331.7246,"ARG_OF_PERICENTER":188.5861,"MEAN_ANOMALY":171.5344,"EPHEMERIS_TYPE":0,"CLASSIFICATION_TYPE":"U","NORAD_CAT_ID":56359,"ELEMENT_SET_NO":999,"REV_AT_EPOCH":14303,"BSTAR":-3.2386e-5,"MEAN_MOTION_DOT":-4.74e-6,"MEAN_MOTION_DDOT":0},{"OBJECT_NAME":"STARLINK-5549","OBJECT_ID":"2023-058AV","EPOCH":"2025-11-28T23:30:30.293856","MEAN_MOTION":15.05644062,"ECCENTRICITY":0.000167,"INCLINATION":97.6026,"RA_OF_ASC_NODE":331.9607,"ARG_OF_PERICENTER":82.2343,"MEAN_ANOMALY":277.9073,"EPHEMERIS_TYPE":0,"CLASSIFICATION_TYPE":"U","NORAD_CAT_ID":56360,"ELEMENT_SET_NO":999,"REV_AT_EPOCH":14304,"BSTAR":1.6301e-5,"MEAN_MOTION_DOT":1.74e-6,"MEAN_MOTION_DDOT":0},{"OBJECT_NAME":"STARLINK-5550","OBJECT_ID":"2023-058AW","EPOCH":"2025-11-28T21:42:05.649120","MEAN_MOTION":15.01254845,"ECCENTRICITY":0.0002671,"INCLINATION":97.6023,"RA_OF_ASC_NODE":331.5969,"ARG_OF_PERICENTER":137.0753,"MEAN_ANOMALY":223.068,"EPHEMERIS_TYPE":0,"CLASSIFICATION_TYPE":"U","NORAD_CAT_ID":56361,"ELEMENT_SET_NO":999,"REV_AT_EPOCH":14301,"BSTAR":-7.6812e-5,"MEAN_MOTION_DOT":-1.045e-5,"MEAN_MOTION_DDOT":0},{"OBJECT_NAME":"STARLINK-5972","OBJECT_ID":"2023-058AX","EPOCH":"2025-11-28T23:38:28.593024","MEAN_MOTION":15.05648558,"ECCENTRICITY":0.0001986,"INCLINATION":97.6027,"RA_OF_ASC_NODE":331.954,"ARG_OF_PERICENTER":104.1657,"MEAN_ANOMALY":255.979,"EPHEMERIS_TYPE":0,"CLASSIFICATION_TYPE":"U","NORAD_CAT_ID":56362,"ELEMENT_SET_NO":999,"REV_AT_EPOCH":14304,"BSTAR":-7.2843e-5,"MEAN_MOTION_DOT":-1.112e-5,"MEAN_MOTION_DDOT":0},{"OBJECT_NAME":"STARLINK-6156","OBJECT_ID":"2023-061A","EPOCH":"2025-11-29T02:50:22.853184","MEAN_MOTION":15.02539172,"ECCENTRICITY":0.0001376,"INCLINATION":43.0056,"RA_OF_ASC_NODE":24.1581,"ARG_OF_PERICENTER":269.0875,"MEAN_ANOMALY":90.9809,"EPHEMERIS_TYPE":0,"CLASSIFICATION_TYPE":"U","NORAD_CAT_ID":56374,"ELEMENT_SET_NO":999,"REV_AT_EPOCH":14272,"BSTAR":0.00015569,"MEAN_MOTION_DOT":1.9e-5,"MEAN_MOTION_DDOT":0},{"OBJECT_NAME":"STARLINK-6158","OBJECT_ID":"2023-061B","EPOCH":"2025-11-29T04:18:07.753824","MEAN_MOTION":15.02531783,"ECCENTRICITY":0.0001191,"INCLINATION":43.0046,"RA_OF_ASC_NODE":23.7534,"ARG_OF_PERICENTER":270.4162,"MEAN_ANOMALY":89.6544,"EPHEMERIS_TYPE":0,"CLASSIFICATION_TYPE":"U","NORAD_CAT_ID":56375,"ELEMENT_SET_NO":999,"REV_AT_EPOCH":14163,"BSTAR":2.4628e-5,"MEAN_MOTION_DOT":1.29e-6,"MEAN_MOTION_DDOT":0},{"OBJECT_NAME":"STARLINK-6188","OBJECT_ID":"2023-061C","EPOCH":"2025-11-29T03:47:45.519936","MEAN_MOTION":15.0253627,"ECCENTRICITY":0.000124,"INCLINATION":43.0048,"RA_OF_ASC_NODE":23.5968,"ARG_OF_PERICENTER":269.2907,"MEAN_ANOMALY":90.7794,"EPHEMERIS_TYPE":0,"CLASSIFICATION_TYPE":"U","NORAD_CAT_ID":56376,"ELEMENT_SET_NO":999,"REV_AT_EPOCH":14163,"BSTAR":3.6541e-5,"MEAN_MOTION_DOT":2.9e-6,"MEAN_MOTION_DDOT":0},{"OBJECT_NAME":"STARLINK-6189","OBJECT_ID":"2023-061D","EPOCH":"2025-11-29T04:13:19.805088","MEAN_MOTION":15.02526883,"ECCENTRICITY":0.000127,"INCLINATION":43.0059,"RA_OF_ASC_NODE":23.7295,"ARG_OF_PERICENTER":269.2159,"MEAN_ANOMALY":90.8538,"EPHEMERIS_TYPE":0,"CLASSIFICATION_TYPE":"U","NORAD_CAT_ID":56377,"ELEMENT_SET_NO":999,"REV_AT_EPOCH":14163,"BSTAR":0.00010078,"MEAN_MOTION_DOT":1.158e-5,"MEAN_MOTION_DDOT":0},{"OBJECT_NAME":"STARLINK-6191","OBJECT_ID":"2023-061E","EPOCH":"2025-11-29T04:19:43.530816","MEAN_MOTION":15.02532252,"ECCENTRICITY":0.0001168,"INCLINATION":43.0045,"RA_OF_ASC_NODE":23.755,"ARG_OF_PERICENTER":269.7314,"MEAN_ANOMALY":90.3394,"EPHEMERIS_TYPE":0,"CLASSIFICATION_TYPE":"U","NORAD_CAT_ID":56378,"ELEMENT_SET_NO":999,"REV_AT_EPOCH":14163,"BSTAR":2.9526e-5,"MEAN_MOTION_DOT":1.95e-6,"MEAN_MOTION_DDOT":0},{"OBJECT_NAME":"STARLINK-6157","OBJECT_ID":"2023-061F","EPOCH":"2025-11-29T03:57:21.972096","MEAN_MOTION":15.02481564,"ECCENTRICITY":0.0001329,"INCLINATION":43.006,"RA_OF_ASC_NODE":23.6454,"ARG_OF_PERICENTER":276.1258,"MEAN_ANOMALY":83.9433,"EPHEMERIS_TYPE":0,"CLASSIFICATION_TYPE":"U","NORAD_CAT_ID":56379,"ELEMENT_SET_NO":999,"REV_AT_EPOCH":14273,"BSTAR":0.0010667,"MEAN_MOTION_DOT":0.00014214,"MEAN_MOTION_DDOT":0},{"OBJECT_NAME":"STARLINK-6159","OBJECT_ID":"2023-061H","EPOCH":"2025-11-29T04:06:56.409408","MEAN_MOTION":15.02533049,"ECCENTRICITY":0.0001439,"INCLINATION":43.0028,"RA_OF_ASC_NODE":23.6923,"ARG_OF_PERICENTER":273.0416,"MEAN_ANOMALY":87.0261,"EPHEMERIS_TYPE":0,"CLASSIFICATION_TYPE":"U","NORAD_CAT_ID":56381,"ELEMENT_SET_NO":999,"REV_AT_EPOCH":14163,"BSTAR":-7.5355e-6,"MEAN_MOTION_DOT":-3.05e-6,"MEAN_MOTION_DDOT":0},{"OBJECT_NAME":"STARLINK-6160","OBJECT_ID":"2023-061J","EPOCH":"2025-11-29T03:49:21.486144","MEAN_MOTION":15.02535109,"ECCENTRICITY":0.0001365,"INCLINATION":43.0065,"RA_OF_ASC_NODE":23.5989,"ARG_OF_PERICENTER":272.0387,"MEAN_ANOMALY":88.0299,"EPHEMERIS_TYPE":0,"CLASSIFICATION_TYPE":"U","NORAD_CAT_ID":56382,"ELEMENT_SET_NO":999,"REV_AT_EPOCH":14163,"BSTAR":1.495e-5,"MEAN_MOTION_DOT":-2.0e-8,"MEAN_MOTION_DDOT":0},{"OBJECT_NAME":"STARLINK-6166","OBJECT_ID":"2023-061K","EPOCH":"2025-11-29T03:52:33.135168","MEAN_MOTION":15.0253702,"ECCENTRICITY":0.0001311,"INCLINATION":43.0053,"RA_OF_ASC_NODE":23.6157,"ARG_OF_PERICENTER":266.1552,"MEAN_ANOMALY":93.914,"EPHEMERIS_TYPE":0,"CLASSIFICATION_TYPE":"U","NORAD_CAT_ID":56383,"ELEMENT_SET_NO":999,"REV_AT_EPOCH":14163,"BSTAR":1.8223e-6,"MEAN_MOTION_DOT":-1.79e-6,"MEAN_MOTION_DDOT":0}]
