STARLINK-5533           
1 56355U 23058AQ  25332.90792116 -.00003567  00000+0 -27336-3 0  9998
2 56355  97.6026 331.5930 0001613 196.3322 163.7851 15.01256979143012
STARLINK-5535           
1 56356U 23058AR  25332.99059074  .00000011  00000+0  49446-5 0  9994
2 56356  97.6027 331.9474 0001794  88.8699 271.2733 15.05647529143049
STARLINK-5538           
1 56357U 23058AS  25332.89091005  .00000457  00000+0  35863-4 0  9995
2 56357  97.6025 331.9261 0001616  89.8694 270.2718 15.05648258143032
STARLINK-5482           
1 56358U 23058AT  25332.97828588  .00000192  00000+0  19486-4 0  9998
2 56358  97.6021 331.6530 0001371 176.7399 183.3835 15.01261916143022
STARLINK-5551           
1 56359U 23058AU  25333.03963862 -.00000474  00000+0 -32386-4 0  9991
2 56359  97.6027 331.7246 0001152 188.5861 171.5344 15.01256290143030
STARLINK-5549           
1 56360U 23058AV  25332.97951729  .00000174  00000+0  16301-4 0  9998
2 56360  97.6026 331.9607 0001670  82.2343 277.9073 15.05644062143047
STARLINK-5550           
1 56361U 23058AW  25332.90423205 -.00001045  00000+0 -76812-4 0  9998
2 56361  97.6023 331.5969 0002671 137.0753 223.0680 15.01254845143013
STARLINK-5972           
1 56362U 23058AX  25332.98505316 -.00001112  00000+0 -72843-4 0  9996
2 56362  97.6027 331.9540 0001986 104.1657 255.9790 15.05648558143044
STARLINK-6156           
1 56374U 23061A   25333.11832006  .00001900  00000+0  15569-3 0  9992
2 56374  43.0056  24.1581 0001376 269.0875  90.9809 15.02539172142726
STARLINK-6158           
1 56375U 23061B   25333.17925641  .00000129  00000+0  24628-4 0  9996
2 56375  43.0046  23.7534 0001191 270.4162  89.6544 15.02531783141639
STARLINK-6188           
1 56376U 23061C   25333.15816574  .00000290  00000+0  36541-4 0  9995
2 56376  43.0048  23.5968 0001240 269.2907  90.7794 15.02536270141635
STARLINK-6189           
1 56377U 23061D   25333.17592367  .00001158  00000+0  10078-3 0  9999
2 56377  43.0059  23.7295 0001270 269.2159  90.8538 15.02526883141631
STARLINK-6191           
1 56378U 23061E   25333.18036494  .00000195  00000+0  29526-4 0  9994
2 56378  43.0045  23.7550 0001168 269.7314  90.3394 15.02532252141637
STARLINK-6157           
1 56379U 23061F   25333.16483764  .00014214  00000+0  10667-2 0  9990
2 56379  43.0060  23.6454 0001329 276.1258  83.9433 15.02481564142738
STARLINK-6159           
1 56381U 23061H   25333.17148622 -.00000305  00000+0 -75355-5 0  9991
2 56381  43.0028  23.6923 0001439 273.0416  87.0261 15.02533049141638
STARLINK-6160           
1 56382U 23061J   25333.15927646 -.00000002  00000+0  14950-4 0  9997
2 56382  43.0065  23.5989 0001365 272.0387  88.0299 15.02535109141636
STARLINK-6166           
1 56383U 23061K   25333.16149462 -.00000179  00000+0  18223-5 0  9994
2 56383  43.0053  23.6157 0001311 266.1552  93.9140 15.02537020141635
